[{"OBJECT_NAME":"STARLINK-2021","OBJECT_ID":"2021-009BJ","EPOCH":"2026-03-09T21:25:11.703648","MEAN_MOTION":15.65170997,"ECCENTRICITY":0.00069123,"INCLINATION":53.0451,"RA_OF_ASC_NODE":334.9816,"ARG_OF_PERICENTER":125.4703,"MEAN_ANOMALY":234.6958,"EPHEMERIS_TYPE":0,"CLASSIFICATION_TYPE":"U","NORAD_CAT_ID":47604,"ELEMENT_SET_NO":999,"REV_AT_EPOCH":28147,"BSTAR":0.00097097942,"MEAN_MOTION_DOT":0.00098541,"MEAN_MOTION_DDOT":0},{"OBJECT_NAME":"BANE","OBJECT_ID":"2023-185D","EPOCH":"2026-03-09T22:38:54.916224","MEAN_MOTION":15.6846319,"ECCENTRICITY":0.00050193,"INCLINATION":97.3445,"RA_OF_ASC_NODE":151.472,"ARG_OF_PERICENTER":176.385,"MEAN_ANOMALY":183.7448,"EPHEMERIS_TYPE":0,"CLASSIFICATION_TYPE":"U","NORAD_CAT_ID":58465,"ELEMENT_SET_NO":999,"REV_AT_EPOCH":12713,"BSTAR":0.00097597303,"MEAN_MOTION_DOT":0.00111172,"MEAN_MOTION_DDOT":0}]
